OBJECT_NAME,OBJECT_ID,EPOCH,MEAN_MOTION,ECCENTRICITY,INCLINATION,RA_OF_ASC_NODE,ARG_OF_PERICENTER,MEAN_ANOMALY,EPHEMERIS_TYPE,CLASSIFICATION_TYPE,NORAD_CAT_ID,ELEMENT_SET_NO,REV_AT_EPOCH,BSTAR,MEAN_MOTION_DOT,MEAN_MOTION_DDOT
INTELSAT 23 (IS-23),2012-057A,2026-07-10T01:30:00.161568,1.00269710,.00004627,0.0141,34.5412,184.3558,38.5923,0,U,38867,999,5018,0,-.273E-5,0
FM-6,2013-058A,2026-07-10T13:03:09.860832,1.00269783,.00012802,0.0174,39.3029,137.9736,190.6257,0,U,39360,999,4630,0,-.6E-7,0
INTELSAT 30 (IS-30),2014-062A,2026-07-10T06:18:34.396704,1.00271243,.00012376,0.0192,51.4260,336.2755,260.0814,0,U,40271,999,702,0,-.14E-5,0
DIRECTV 14,2014-078B,2026-07-10T15:00:25.975296,1.00269904,.00002684,0.0097,22.1783,296.2025,96.0342,0,U,40333,999,4227,0,-.116E-5,0
DIRECTV 15,2015-026A,2026-07-10T11:24:20.159712,1.00272881,.00001112,0.0194,72.3901,163.9672,120.2514,0,U,40663,999,4069,0,-.93E-6,0
SKY MEXICO-1,2015-026B,2026-07-10T13:13:53.832000,1.00271340,.00023001,0.0052,42.6285,91.7989,273.7228,0,U,40664,999,4068,0,-.224E-5,0
INTELSAT 34 (IS-34),2015-039A,2026-07-10T01:21:54.642816,1.00270657,.00001224,0.0101,16.1720,324.1781,272.6171,0,U,40874,999,3986,0,-.274E-5,0
INTELSAT 31 (IS-31),2016-035A,2026-07-10T06:18:34.396704,1.00271183,.00010139,0.0186,278.5787,347.5471,21.6525,0,U,41581,999,3691,0,-.14E-5,0
INTELSAT 36 (IS-36),2016-053A,2026-07-10T04:12:21.784032,1.00268599,.00025144,0.0102,354.9716,346.8192,77.8966,0,U,41747,999,3618,0,-.13E-6,0
INTELSAT 32E (IS-32E),2017-007B,2026-07-10T03:08:08.520288,1.00267562,.00003413,0.0258,33.0821,235.9737,22.8541,0,U,41945,999,3445,0,0,0
INTELSAT 35E (IS-35E),2017-041A,2026-07-10T11:43:48.293760,1.00270458,.00015717,0.0032,111.0474,358.6024,320.2234,0,U,42818,999,3304,0,-.228E-5,0
INTELSAT 37E (IS-37E),2017-059A,2026-07-10T10:05:54.412224,1.00270770,.00025238,0.0177,47.3723,69.5596,304.8910,0,U,42950,999,3229,0,-.131E-5,0
AZERSPACE 2 (IS-38),2018-074A,2026-07-10T13:49:12.945792,1.00270567,.00012048,0.0262,31.9142,92.5801,56.4227,0,U,43632,999,2868,0,0,0
HORIZONS-3E,2018-074B,2026-07-09T19:35:17.814624,1.00272318,.00007811,0.0363,213.3135,67.3154,109.9513,0,U,43633,999,2856,0,-.18E-6,0
AT&T T-16,2019-034A,2026-07-09T21:43:36.619680,1.00271911,.00007189,0.0147,67.1818,252.0909,193.6074,0,U,44333,999,2586,0,-.103E-5,0
INTELSAT 39 (IS-39),2019-049B,2026-07-10T14:39:38.471616,1.00270540,.00009093,0.0260,33.2776,285.7351,251.3790,0,U,44476,999,2536,0,0,0
GALAXY 30 (G-30),2020-056C,2026-07-10T15:14:18.013344,1.00270453,.00019215,0.0273,37.5583,75.5966,278.9728,0,U,46114,999,2152,0,0,0
GALAXY 33 (G-33),2022-128A,2026-07-10T15:18:15.654816,1.00270725,.00017837,0.0156,15.8890,101.2656,267.9683,0,U,54026,999,1397,0,.88E-6,0
GALAXY 34 (G-34),2022-128B,2026-07-10T15:16:17.057856,1.00271762,.00014584,0.0116,33.6569,82.9540,272.0146,0,U,54027,999,1414,0,.68E-6,0
GALAXY 31 (G-31),2022-153A,2026-07-10T15:12:19.521792,1.00269885,.00009223,0.0206,47.1412,76.2843,272.2042,0,U,54243,999,736,0,0,0
GALAXY 32 (G-32),2022-153B,2026-07-10T06:19:49.276992,1.00271315,.00015071,0.0095,29.5174,17.2587,245.3708,0,U,54244,999,1337,0,-.163E-5,0
GALAXY 35 (G-35),2022-170A,2026-07-10T14:56:26.316384,1.00269569,.00018581,0.0172,35.5452,80.5584,303.4466,0,U,54741,999,1312,0,0,0
GALAXY 36 (G-36),2022-170B,2026-07-10T13:10:54.119136,1.00271449,.00024068,0.0266,116.6909,342.5107,297.9972,0,U,54742,999,1300,0,-.175E-5,0
GALAXY 37 (G-37),2023-112A,2026-07-10T15:15:17.563680,1.00270423,.00017783,0.0119,61.5505,53.2194,275.6072,0,U,57493,999,1077,0,.58E-6,0
